[{"OBJECT_NAME":"LEMUR-2-GREENBERG","OBJECT_ID":"2017-042N","EPOCH":"2026-03-09T11:05:17.256192","MEAN_MOTION":15.27971352,"ECCENTRICITY":0.00091572,"INCLINATION":97.3781,"RA_OF_ASC_NODE":249.8007,"ARG_OF_PERICENTER":4.0119,"MEAN_ANOMALY":356.1192,"EPHEMERIS_TYPE":0,"CLASSIFICATION_TYPE":"U","NORAD_CAT_ID":42837,"ELEMENT_SET_NO":999,"REV_AT_EPOCH":47314,"BSTAR":0.00072539172,"MEAN_MOTION_DOT":0.00019778,"MEAN_MOTION_DDOT":0},{"OBJECT_NAME":"STARLINK-36094","OBJECT_ID":"2025-281D","EPOCH":"2026-03-09T03:32:26.075328","MEAN_MOTION":15.27569557,"ECCENTRICITY":0.00015493,"INCLINATION":43.0032,"RA_OF_ASC_NODE":346.4497,"ARG_OF_PERICENTER":260.6256,"MEAN_ANOMALY":99.442,"EPHEMERIS_TYPE":0,"CLASSIFICATION_TYPE":"U","NORAD_CAT_ID":66851,"ELEMENT_SET_NO":999,"REV_AT_EPOCH":1610,"BSTAR":0.0014206979,"MEAN_MOTION_DOT":0.00039027,"MEAN_MOTION_DDOT":0}]
